Business Name (DBA),Address1,Address2,City,State,Zip,Community Board,NAICS Code,Number of Worker-Owners,Number of Non-Member Worker-Owners,Subtype,Borough,Latitude,Longitude,City Council,Census Tract,BIN,BBL,NTA
A Bookkeeping Cooperative,495 Flatbush Avenue,Suite 2,Brooklyn,NY,11225,9 BROOKLYN,Other Accounting Services,,,Market Research,BROOKLYN,40.662184,-73.961754,40,327,3029735,3011970006,Prospect Lefferts Gardens-Wingate
A.C.T.O. for Safety LLC,PO Box 8206,,Jackson Heights,NY,11372,3 QUEENS,Educational Support Services,9,,Coaching,,,,,,,,
ActionOSH,443 39th Street,,Brooklyn,NY,11232,7 BROOKLYN,Educational Support Services,3,1,Bookkeeping,BROOKLYN,40.652001,-74.00511,38,84,3396141,3007050059,Sunset Park West
ActionOSH,443 39th Street,,Brooklyn,NY,11232,7 BROOKLYN,Educational Support Services,3,1,Coaching,BROOKLYN,40.652001,-74.00511,38,84,3396141,3007050059,Sunset Park West
ActionOSH,443 39th Street,,Brooklyn,NY,11232,7 BROOKLYN,Educational Support Services,3,1,Governance Consultation,BROOKLYN,40.652001,-74.00511,38,84,3396141,3007050059,Sunset Park West
ActionOSH,443 39th Street,,Brooklyn,NY,11232,7 BROOKLYN,Educational Support Services,3,1,Internal Manuals,BROOKLYN,40.652001,-74.00511,38,84,3396141,3007050059,Sunset Park West
ActionOSH,443 39th Street,,Brooklyn,NY,11232,7 BROOKLYN,Educational Support Services,3,1,Market Research,BROOKLYN,40.652001,-74.00511,38,84,3396141,3007050059,Sunset Park West
ActionOSH,443 39th Street,,Brooklyn,NY,11232,7 BROOKLYN,Educational Support Services,3,1,Organizational Planning,BROOKLYN,40.652001,-74.00511,38,84,3396141,3007050059,Sunset Park West
ActionOSH,443 39th Street,,Brooklyn,NY,11232,7 BROOKLYN,Educational Support Services,3,1,Strategic Planning,BROOKLYN,40.652001,-74.00511,38,84,3396141,3007050059,Sunset Park West
ActionOSH,443 39th Street,,Brooklyn,NY,11232,7 BROOKLYN,Educational Support Services,3,1,Support and Troubleshooting,BROOKLYN,40.652001,-74.00511,38,84,3396141,3007050059,Sunset Park West
ActionOSH,443 39th Street,,Brooklyn,NY,11232,7 BROOKLYN,Educational Support Services,3,1,Web Development and Support,BROOKLYN,40.652001,-74.00511,38,84,3396141,3007050059,Sunset Park West
All Hands and The Cook,1590 Park Avenue,,New York,NY,10029,11 MANHATTAN,Temporary Help Services,10,,Financial Planning,MANHATTAN,40.798495,-73.943819,8,182,1088600,1200149999,East Harlem North
All Hands and The Cook,1590 Park Avenue,,New York,NY,10029,11 MANHATTAN,Temporary Help Services,10,,Governance Consultation,MANHATTAN,40.798495,-73.943819,8,182,1088600,1200149999,East Harlem North
All Hands and The Cook,1590 Park Avenue,,New York,NY,10029,11 MANHATTAN,Temporary Help Services,10,,Internal Manuals,MANHATTAN,40.798495,-73.943819,8,182,1088600,1200149999,East Harlem North
All Hands and The Cook,1590 Park Avenue,,New York,NY,10029,11 MANHATTAN,Temporary Help Services,10,,Organizational Planning,MANHATTAN,40.798495,-73.943819,8,182,1088600,1200149999,East Harlem North
All Hands and The Cook,1590 Park Avenue,,New York,NY,10029,11 MANHATTAN,Temporary Help Services,10,,,MANHATTAN,40.798495,-73.943819,8,182,1088600,1200149999,East Harlem North
Anuket Ile,409 Morris Park Avenue,,Bronx,NY,10460,6 BRONX,,4,,Business Plan Development,BRONX,40.839207,-73.87415,15,60,2028399,2039090040,Crotona Park East
Anuket Ile,409 Morris Park Avenue,,Bronx,NY,10460,6 BRONX,,4,,Financial Planning,BRONX,40.839207,-73.87415,15,60,2028399,2039090040,Crotona Park East
Anuket Ile,409 Morris Park Avenue,,Bronx,NY,10460,6 BRONX,,4,,Governance Consultation,BRONX,40.839207,-73.87415,15,60,2028399,2039090040,Crotona Park East
Anuket Ile,409 Morris Park Avenue,,Bronx,NY,10460,6 BRONX,,4,,Internal Manuals,BRONX,40.839207,-73.87415,15,60,2028399,2039090040,Crotona Park East
Anuket Ile,409 Morris Park Avenue,,Bronx,NY,10460,6 BRONX,,4,,Market Research,BRONX,40.839207,-73.87415,15,60,2028399,2039090040,Crotona Park East
Anuket Ile,409 Morris Park Avenue,,Bronx,NY,10460,6 BRONX,,4,,Strategic Planning,BRONX,40.839207,-73.87415,15,60,2028399,2039090040,Crotona Park East
Anuket Ile,409 Morris Park Avenue,,Bronx,NY,10460,6 BRONX,,4,,Web Development and Support,BRONX,40.839207,-73.87415,15,60,2028399,2039090040,Crotona Park East
Apple Eco-Cleaning,42-72 80th Street,,New York,NY,11373,4 QUEENS,Janitorial Services,6,1,Bookkeeping,QUEENS,40.742725,-73.885068,25,481,4037984,4015250047,Elmhurst
Apple Eco-Cleaning,42-72 80th Street,,New York,NY,11373,4 QUEENS,Janitorial Services,6,1,Business Plan Development,QUEENS,40.742725,-73.885068,25,481,4037984,4015250047,Elmhurst
Apple Eco-Cleaning,42-72 80th Street,,New York,NY,11373,4 QUEENS,Janitorial Services,6,1,Coaching,QUEENS,40.742725,-73.885068,25,481,4037984,4015250047,Elmhurst
Apple Eco-Cleaning,42-72 80th Street,,New York,NY,11373,4 QUEENS,Janitorial Services,6,1,Finance & Operations,QUEENS,40.742725,-73.885068,25,481,4037984,4015250047,Elmhurst
Apple Eco-Cleaning,42-72 80th Street,,New York,NY,11373,4 QUEENS,Janitorial Services,6,1,Internal Manuals,QUEENS,40.742725,-73.885068,25,481,4037984,4015250047,Elmhurst
Apple Eco-Cleaning,42-72 80th Street,,New York,NY,11373,4 QUEENS,Janitorial Services,6,1,Market Research,QUEENS,40.742725,-73.885068,25,481,4037984,4015250047,Elmhurst
Apple Eco-Cleaning,42-72 80th Street,,New York,NY,11373,4 QUEENS,Janitorial Services,6,1,Organizational Planning,QUEENS,40.742725,-73.885068,25,481,4037984,4015250047,Elmhurst
Apple Eco-Cleaning,42-72 80th Street,,New York,NY,11373,4 QUEENS,Janitorial Services,6,1,Support and Troubleshooting,QUEENS,40.742725,-73.885068,25,481,4037984,4015250047,Elmhurst
Apple Eco-Cleaning,42-72 80th Street,,New York,NY,11373,4 QUEENS,Janitorial Services,6,1,,QUEENS,40.742725,-73.885068,25,481,4037984,4015250047,Elmhurst
Artisan Sewing LLC,3703 62nd Street,2nd Floor,Queens,NY,11377,2 QUEENS,,,,Governance Consultation,QUEENS,40.748841,-73.900728,26,261,4027899,4012170047,Woodside
Artisan Sewing LLC,3703 62nd Street,2nd Floor,Queens,NY,11377,2 QUEENS,,,,Initial Consultation,QUEENS,40.748841,-73.900728,26,261,4027899,4012170047,Woodside
Artisan Sewing LLC,3703 62nd Street,2nd Floor,Queens,NY,11377,2 QUEENS,,,,Strategic Planning,QUEENS,40.748841,-73.900728,26,261,4027899,4012170047,Woodside
Bed-Stuy Fresh and Local,210 Patchen Avenue,,Brooklyn,NY,11233,3 BROOKLYN,Supermarkets and Other Grocery (except Convenience) Stores,2,2,Business Plan Development,BROOKLYN,40.683661,-73.92623,36,383,3338081,3016720042,Stuyvesant Heights
Bed-Stuy Fresh and Local,210 Patchen Avenue,,Brooklyn,NY,11233,3 BROOKLYN,Supermarkets and Other Grocery (except Convenience) Stores,2,2,Coaching,BROOKLYN,40.683661,-73.92623,36,383,3338081,3016720042,Stuyvesant Heights
Bed-Stuy Fresh and Local,210 Patchen Avenue,,Brooklyn,NY,11233,3 BROOKLYN,Supermarkets and Other Grocery (except Convenience) Stores,2,2,Succession Planning,BROOKLYN,40.683661,-73.92623,36,383,3338081,3016720042,Stuyvesant Heights
Beyond Care Child Care Cooperative,443 39th Street,,Brooklyn,NY,11232,7 BROOKLYN,Child Day Care Services,39,,Bookkeeping,BROOKLYN,40.652001,-74.00511,38,84,3396141,3007050059,Sunset Park West
Beyond Care Child Care Cooperative,443 39th Street,,Brooklyn,NY,11232,7 BROOKLYN,Child Day Care Services,39,,Business Plan Development,BROOKLYN,40.652001,-74.00511,38,84,3396141,3007050059,Sunset Park West
Beyond Care Child Care Cooperative,443 39th Street,,Brooklyn,NY,11232,7 BROOKLYN,Child Day Care Services,39,,Financial Planning,BROOKLYN,40.652001,-74.00511,38,84,3396141,3007050059,Sunset Park West
Beyond Care Child Care Cooperative,443 39th Street,,Brooklyn,NY,11232,7 BROOKLYN,Child Day Care Services,39,,Market Research,BROOKLYN,40.652001,-74.00511,38,84,3396141,3007050059,Sunset Park West
Beyond Care Child Care Cooperative,443 39th Street,,Brooklyn,NY,11232,7 BROOKLYN,Child Day Care Services,39,,Organizational Planning,BROOKLYN,40.652001,-74.00511,38,84,3396141,3007050059,Sunset Park West
Beyond Care Child Care Cooperative,443 39th Street,,Brooklyn,NY,11232,7 BROOKLYN,Child Day Care Services,39,,Strategic Planning,BROOKLYN,40.652001,-74.00511,38,84,3396141,3007050059,Sunset Park West
Beyond Care Child Care Cooperative,443 39th Street,,Brooklyn,NY,11232,7 BROOKLYN,Child Day Care Services,39,,Succession Planning,BROOKLYN,40.652001,-74.00511,38,84,3396141,3007050059,Sunset Park West
Beyond Care Child Care Cooperative,443 39th Street,,Brooklyn,NY,11232,7 BROOKLYN,Child Day Care Services,39,,,BROOKLYN,40.652001,-74.00511,38,84,3396141,3007050059,Sunset Park West
Bikes and Humans,,,,,,,Sporting Goods Stores,,,Coaching,,,,,,,,
Bio-Classic Cleaning,1231 Lafayette Ave,,Bronx,NY,10474,2 BRONX,Janitorial Services,4,,Bookkeeping,BRONX,40.816486,-73.890277,17,93,2005939,2027390015,Hunts Point
Bio-Classic Cleaning,1231 Lafayette Ave,,Bronx,NY,10474,2 BRONX,Janitorial Services,4,,Business Plan Development,BRONX,40.816486,-73.890277,17,93,2005939,2027390015,Hunts Point
Bio-Classic Cleaning,1231 Lafayette Ave,,Bronx,NY,10474,2 BRONX,Janitorial Services,4,,Finance & Operations,BRONX,40.816486,-73.890277,17,93,2005939,2027390015,Hunts Point
Bio-Classic Cleaning,1231 Lafayette Ave,,Bronx,NY,10474,2 BRONX,Janitorial Services,4,,Financial Planning,BRONX,40.816486,-73.890277,17,93,2005939,2027390015,Hunts Point
Bio-Classic Cleaning,1231 Lafayette Ave,,Bronx,NY,10474,2 BRONX,Janitorial Services,4,,Initial Consultation,BRONX,40.816486,-73.890277,17,93,2005939,2027390015,Hunts Point
Bio-Classic Cleaning,1231 Lafayette Ave,,Bronx,NY,10474,2 BRONX,Janitorial Services,4,,Internal Manuals,BRONX,40.816486,-73.890277,17,93,2005939,2027390015,Hunts Point
Bio-Classic Cleaning,1231 Lafayette Ave,,Bronx,NY,10474,2 BRONX,Janitorial Services,4,,Market Research,BRONX,40.816486,-73.890277,17,93,2005939,2027390015,Hunts Point
Bio-Classic Cleaning,1231 Lafayette Ave,,Bronx,NY,10474,2 BRONX,Janitorial Services,4,,Organizational Planning,BRONX,40.816486,-73.890277,17,93,2005939,2027390015,Hunts Point
Bio-Classic Cleaning,1231 Lafayette Ave,,Bronx,NY,10474,2 BRONX,Janitorial Services,4,,Strategic Planning,BRONX,40.816486,-73.890277,17,93,2005939,2027390015,Hunts Point
BioKakao,1138 229th Drive South,,Bronx,NY,10466,12 BRONX,Other Farm Product Raw Material Merchant Wholesalers,3,,Business Plan Development,BRONX,40.885536,-73.846023,12,458,2097991,2049050001,Eastchester-Edenwald-Baychester
BioKakao,1138 229th Drive South,,Bronx,NY,10466,12 BRONX,Other Farm Product Raw Material Merchant Wholesalers,3,,Market Research,BRONX,40.885536,-73.846023,12,458,2097991,2049050001,Eastchester-Edenwald-Baychester
"Bits and Bites, LLC",1231 Lafayette Avenue,,Bronx,NY,10473,9 BRONX,Other Computer Related Services,2,1,Financial Planning,BRONX,40.816486,-73.890277,17,93,2005939,2027390015,Hunts Point
"Bits and Bites, LLC",1231 Lafayette Avenue,,Bronx,NY,10473,9 BRONX,Other Computer Related Services,2,1,Initial Consultation,BRONX,40.816486,-73.890277,17,93,2005939,2027390015,Hunts Point
"Bits and Bites, LLC",1231 Lafayette Avenue,,Bronx,NY,10473,9 BRONX,Other Computer Related Services,2,1,Organizational Planning,BRONX,40.816486,-73.890277,17,93,2005939,2027390015,Hunts Point
"Bits and Bites, LLC",1231 Lafayette Avenue,,Bronx,NY,10473,9 BRONX,Other Computer Related Services,2,1,Strategic Planning,BRONX,40.816486,-73.890277,17,93,2005939,2027390015,Hunts Point
"Bits and Bites, LLC",1231 Lafayette Avenue,,Bronx,NY,10473,9 BRONX,Other Computer Related Services,2,1,,BRONX,40.816486,-73.890277,17,93,2005939,2027390015,Hunts Point
BKLN Clean,445 56th Street,,Brooklyn,NY,11220,,,9,,Coaching,BROOKLYN,40.642465,-74.014986,38,76,3014987,3008310062,Sunset Park West
BKLN Clean,445 56th Street,,Brooklyn,NY,11220,,,9,,Financial Planning,BROOKLYN,40.642465,-74.014986,38,76,3014987,3008310062,Sunset Park West
BKLN Clean,445 56th Street,,Brooklyn,NY,11220,,,9,,Governance Consultation,BROOKLYN,40.642465,-74.014986,38,76,3014987,3008310062,Sunset Park West
BKLN Clean,445 56th Street,,Brooklyn,NY,11220,,,9,,Internal Manuals,BROOKLYN,40.642465,-74.014986,38,76,3014987,3008310062,Sunset Park West
Black Women Artists,104 Montgomery Street,,Brooklyn,NY,11225,9 BROOKLYN,"Independent Artists, Writers, and Performers",3,7,Organizational Planning,BROOKLYN,40.66655,-73.96098,35,213,3029727,3011920030,Crown Heights South
Bright Little Stars,50 East 102nd Street,,Manhattan,NY,10029,,Child Day Care Services,4,0,Coaching,MANHATTAN,40.791024,-73.951337,8,168,1079193,1016050024,East Harlem South
Bright Little Stars,50 East 102nd Street,,Manhattan,NY,10029,,Child Day Care Services,4,0,Governance Consultation,MANHATTAN,40.791024,-73.951337,8,168,1079193,1016050024,East Harlem South
Bright Little Stars,50 East 102nd Street,,Manhattan,NY,10029,,Child Day Care Services,4,0,Strategic Planning,MANHATTAN,40.791024,-73.951337,8,168,1079193,1016050024,East Harlem South
Brightly Cleaning Cooperative,774 Port Richmond Ave,,Staten Island,NY,10302,1 STATEN ISLAND,Janitorial Services,6,,Bookkeeping,STATEN IS,40.625223,-74.144626,49,247,5150918,5011400004,Port Richmond
Brightly Cleaning Cooperative,774 Port Richmond Ave,,Staten Island,NY,10302,1 STATEN ISLAND,Janitorial Services,6,,Business Plan Development,STATEN IS,40.625223,-74.144626,49,247,5150918,5011400004,Port Richmond
Brightly Cleaning Cooperative,774 Port Richmond Ave,,Staten Island,NY,10302,1 STATEN ISLAND,Janitorial Services,6,,Coaching,STATEN IS,40.625223,-74.144626,49,247,5150918,5011400004,Port Richmond
Brightly Cleaning Cooperative,774 Port Richmond Ave,,Staten Island,NY,10302,1 STATEN ISLAND,Janitorial Services,6,,Financial Planning,STATEN IS,40.625223,-74.144626,49,247,5150918,5011400004,Port Richmond
Brightly Cleaning Cooperative,774 Port Richmond Ave,,Staten Island,NY,10302,1 STATEN ISLAND,Janitorial Services,6,,Internal Manuals,STATEN IS,40.625223,-74.144626,49,247,5150918,5011400004,Port Richmond
Brightly Cleaning Cooperative,774 Port Richmond Ave,,Staten Island,NY,10302,1 STATEN ISLAND,Janitorial Services,6,,Web Development and Support,STATEN IS,40.625223,-74.144626,49,247,5150918,5011400004,Port Richmond
Brightly Cleaning Cooperative,774 Port Richmond Ave,,Staten Island,NY,10302,1 STATEN ISLAND,Janitorial Services,6,,,STATEN IS,40.625223,-74.144626,49,247,5150918,5011400004,Port Richmond
Brooklyn Packers,360 Throop Avenue,,Brooklyn,NY,11221,3 BROOKLYN,Packaging and Labeling Services,,6,Business Plan Development,BROOKLYN,40.691962,-73.94274,36,261,3413813,3017810040,Bedford
Brooklyn Packers,360 Throop Avenue,,Brooklyn,NY,11221,3 BROOKLYN,Packaging and Labeling Services,,6,Coaching,BROOKLYN,40.691962,-73.94274,36,261,3413813,3017810040,Bedford
Brooklyn Packers,360 Throop Avenue,,Brooklyn,NY,11221,3 BROOKLYN,Packaging and Labeling Services,,6,Financial Planning,BROOKLYN,40.691962,-73.94274,36,261,3413813,3017810040,Bedford
Brooklyn Packers,360 Throop Avenue,,Brooklyn,NY,11221,3 BROOKLYN,Packaging and Labeling Services,,6,,BROOKLYN,40.691962,-73.94274,36,261,3413813,3017810040,Bedford
Caracol Interpreters,128 Linden Boulevard,,Brooklyn,NY,11226,17 BROOKLYN,Translation and Interpretation Services,8,,Bookkeeping,BROOKLYN,40.652404,-73.954112,40,822,3327285,3050870032,Prospect Lefferts Gardens-Wingate
Caracol Interpreters,128 Linden Boulevard,,Brooklyn,NY,11226,17 BROOKLYN,Translation and Interpretation Services,8,,Governance Consultation,BROOKLYN,40.652404,-73.954112,40,822,3327285,3050870032,Prospect Lefferts Gardens-Wingate
Caracol Interpreters,128 Linden Boulevard,,Brooklyn,NY,11226,17 BROOKLYN,Translation and Interpretation Services,8,,Internal Manuals,BROOKLYN,40.652404,-73.954112,40,822,3327285,3050870032,Prospect Lefferts Gardens-Wingate
Caracol Interpreters,128 Linden Boulevard,,Brooklyn,NY,11226,17 BROOKLYN,Translation and Interpretation Services,8,,Market Research,BROOKLYN,40.652404,-73.954112,40,822,3327285,3050870032,Prospect Lefferts Gardens-Wingate
Caracol Interpreters,128 Linden Boulevard,,Brooklyn,NY,11226,17 BROOKLYN,Translation and Interpretation Services,8,,Strategic Planning,BROOKLYN,40.652404,-73.954112,40,822,3327285,3050870032,Prospect Lefferts Gardens-Wingate
CBC Deliveries,565 Chauncey Street,,Brooklyn,NY,11233,16 BROOKLYN,Transportation and Warehousing,4,10,Business Plan Development,BROOKLYN,40.682375,-73.912347,41,373,3040961,3015110043,Ocean Hill
CBC Deliveries,565 Chauncey Street,,Brooklyn,NY,11233,16 BROOKLYN,Transportation and Warehousing,4,10,Organizational Planning,BROOKLYN,40.682375,-73.912347,41,373,3040961,3015110043,Ocean Hill
"Collectively Owned and Operated Platform, Inc.",3100 47th Avenue,,Queens,NY,11101,2 QUEENS,All Other Support Activities for Transportation,,,,QUEENS,40.74306,-73.935652,26,199,4003539,4002810001,Hunters Point-Sunnyside-West Maspeth
Cooperative Cleaning,,,,,,,Janitorial Services,,,Business Plan Development,,,,,,,,
Cooperative Cleaning,,,,,,,Janitorial Services,,,Governance Consultation,,,,,,,,
Cooperative Cleaning,,,,,,,Janitorial Services,,,Market Research,,,,,,,,
Cooperative Cleaning,,,,,,,Janitorial Services,,,Organizational Planning,,,,,,,,
Cooperative Cleaning,,,,,,,Janitorial Services,,,Strategic Planning,,,,,,,,
Cooperative Cleaning,,,,,,,Janitorial Services,,,Web Development and Support,,,,,,,,
Cooperative Home Care Associates,400 East Fordham Road,,Bronx,NY,10458,6 BRONX,Home Health Care Services,,,Financial Planning,BRONX,40.861668,-73.891337,15,38302,2116415,2030337501,Fordham South
CUNY Co-op Cafe,695 Park Avenue,,Bronx,NY,10469,,Snack and Nonalcoholic Beverage Bars,,,Business Plan Development,,,,,,,,
CUNY Co-op Cafe,695 Park Avenue,,Bronx,NY,10469,,Snack and Nonalcoholic Beverage Bars,,,Financial Planning,,,,,,,,
CUNY Co-op Cafe,695 Park Avenue,,Bronx,NY,10469,,Snack and Nonalcoholic Beverage Bars,,,Governance Consultation,,,,,,,,
CUNY Co-op Cafe,695 Park Avenue,,Bronx,NY,10469,,Snack and Nonalcoholic Beverage Bars,,,Internal Manuals,,,,,,,,
CUNY Co-op Cafe,695 Park Avenue,,Bronx,NY,10469,,Snack and Nonalcoholic Beverage Bars,,,Market Research,,,,,,,,
CUNY Co-op Cafe,695 Park Avenue,,Bronx,NY,10469,,Snack and Nonalcoholic Beverage Bars,,,Organizational Planning,,,,,,,,
CUNY Co-op Cafe,695 Park Avenue,,Bronx,NY,10469,,Snack and Nonalcoholic Beverage Bars,,,Strategic Planning,,,,,,,,
CUNY Co-op Cafe,695 Park Avenue,,Bronx,NY,10469,,Snack and Nonalcoholic Beverage Bars,,,,,,,,,,,
CUSP (Cooperatives United for Sunset Park),443 39th Street,,Brooklyn,NY,11232,7 BROOKLYN,,6,,Coaching,BROOKLYN,40.652001,-74.00511,38,84,3396141,3007050059,Sunset Park West
CUSP (Cooperatives United for Sunset Park),443 39th Street,,Brooklyn,NY,11232,7 BROOKLYN,,6,,Financial Planning,BROOKLYN,40.652001,-74.00511,38,84,3396141,3007050059,Sunset Park West
CUSP (Cooperatives United for Sunset Park),443 39th Street,,Brooklyn,NY,11232,7 BROOKLYN,,6,,Governance Consultation,BROOKLYN,40.652001,-74.00511,38,84,3396141,3007050059,Sunset Park West
CUSP (Cooperatives United for Sunset Park),443 39th Street,,Brooklyn,NY,11232,7 BROOKLYN,,6,,Organizational Planning,BROOKLYN,40.652001,-74.00511,38,84,3396141,3007050059,Sunset Park West
CUSP (Cooperatives United for Sunset Park),443 39th Street,,Brooklyn,NY,11232,7 BROOKLYN,,6,,Strategic Planning,BROOKLYN,40.652001,-74.00511,38,84,3396141,3007050059,Sunset Park West
Diaspora Destination,1231 Lafayette Avenue,,Bronx,NY,10474,2 BRONX,All Other Travel Arrangement and Reservation Services,2,,Strategic Planning,BRONX,40.816486,-73.890277,17,93,2005939,2027390015,Hunts Point
Dos Pinos Landscaping LLC,111-16 Rockaway Beach Boulevard,#3,Queens,NY,11694,14 QUEENS,Landscaping Services,4,,Coaching,QUEENS,40.580969,-73.83311,32,938,4452164,4161660050,Breezy Point-Belle Harbor-Rockaway Park-Broad Channel
Dos Pinos Landscaping LLC,111-16 Rockaway Beach Boulevard,#3,Queens,NY,11694,14 QUEENS,Landscaping Services,4,,Market Research,QUEENS,40.580969,-73.83311,32,938,4452164,4161660050,Breezy Point-Belle Harbor-Rockaway Park-Broad Channel
Ecomundo Cleaning LLC,612 West 182nd Street,,Manhattan,NY,10033,12 MANHATTAN,Janitorial Services,18,,Coaching,MANHATTAN,40.850065,-73.933737,10,271,1063942,1021650009,Washington Heights North
Ecomundo Cleaning LLC,612 West 182nd Street,,Manhattan,NY,10033,12 MANHATTAN,Janitorial Services,18,,Market Research,MANHATTAN,40.850065,-73.933737,10,271,1063942,1021650009,Washington Heights North
Emigre Gourmet Catering Collective,443 39th Street,,Brooklyn,NY,11232,7 BROOKLYN,Caterers,5,,Market Research,BROOKLYN,40.652001,-74.00511,38,84,3396141,3007050059,Sunset Park West
Friends of Light,499 Madison Street,,Brooklyn,NY,11221,3 BROOKLYN,Apparel Accessories and Other Apparel Manufacturing,4,,Business Plan Development,BROOKLYN,40.686237,-73.937463,36,277,3044829,3016390066,Stuyvesant Heights
GLOCAL,Business address not made available,,,,,,Software Publishers,3,,Bookkeeping,,,,,,,,
GLOCAL,Business address not made available,,,,,,Software Publishers,3,,Market Research,,,,,,,,
Golden Steps Elder Care Cooperative,443 39th Street,,Brooklyn,NY,11232,7 BROOKLYN,Home Health Care Services,14,,Bookkeeping,BROOKLYN,40.652001,-74.00511,38,84,3396141,3007050059,Sunset Park West
Golden Steps Elder Care Cooperative,443 39th Street,,Brooklyn,NY,11232,7 BROOKLYN,Home Health Care Services,14,,Business Plan Development,BROOKLYN,40.652001,-74.00511,38,84,3396141,3007050059,Sunset Park West
Golden Steps Elder Care Cooperative,443 39th Street,,Brooklyn,NY,11232,7 BROOKLYN,Home Health Care Services,14,,Coaching,BROOKLYN,40.652001,-74.00511,38,84,3396141,3007050059,Sunset Park West
Golden Steps Elder Care Cooperative,443 39th Street,,Brooklyn,NY,11232,7 BROOKLYN,Home Health Care Services,14,,Financial Planning,BROOKLYN,40.652001,-74.00511,38,84,3396141,3007050059,Sunset Park West
Golden Steps Elder Care Cooperative,443 39th Street,,Brooklyn,NY,11232,7 BROOKLYN,Home Health Care Services,14,,Internal Manuals,BROOKLYN,40.652001,-74.00511,38,84,3396141,3007050059,Sunset Park West
Golden Steps Elder Care Cooperative,443 39th Street,,Brooklyn,NY,11232,7 BROOKLYN,Home Health Care Services,14,,Market Research,BROOKLYN,40.652001,-74.00511,38,84,3396141,3007050059,Sunset Park West
Golden Steps Elder Care Cooperative,443 39th Street,,Brooklyn,NY,11232,7 BROOKLYN,Home Health Care Services,14,,Organizational Planning,BROOKLYN,40.652001,-74.00511,38,84,3396141,3007050059,Sunset Park West
Golden Steps Elder Care Cooperative,443 39th Street,,Brooklyn,NY,11232,7 BROOKLYN,Home Health Care Services,14,,Strategic Planning,BROOKLYN,40.652001,-74.00511,38,84,3396141,3007050059,Sunset Park West
Golden Steps Elder Care Cooperative,443 39th Street,,Brooklyn,NY,11232,7 BROOKLYN,Home Health Care Services,14,,,BROOKLYN,40.652001,-74.00511,38,84,3396141,3007050059,Sunset Park West
Kaluk Marketing,443 39th Street,,Brooklyn,NY,11232,7 BROOKLYN,Marketing Consulting Services,4,4,,BROOKLYN,40.652001,-74.00511,38,84,3396141,3007050059,Sunset Park West
L&S Printing LLC,188 Beach 116th Street,,Queens,NY,11694,14 QUEENS,Commercial Printing (except Screen and Books),,0,Coaching,QUEENS,40.579379,-73.836941,32,938,4303944,4161880078,Breezy Point-Belle Harbor-Rockaway Park-Broad Channel
L&S Printing LLC,188 Beach 116th Street,,Queens,NY,11694,14 QUEENS,Commercial Printing (except Screen and Books),,0,Financial Planning,QUEENS,40.579379,-73.836941,32,938,4303944,4161880078,Breezy Point-Belle Harbor-Rockaway Park-Broad Channel
L&S Printing LLC,188 Beach 116th Street,,Queens,NY,11694,14 QUEENS,Commercial Printing (except Screen and Books),,0,Initial Consultation,QUEENS,40.579379,-73.836941,32,938,4303944,4161880078,Breezy Point-Belle Harbor-Rockaway Park-Broad Channel
L&S Printing LLC,188 Beach 116th Street,,Queens,NY,11694,14 QUEENS,Commercial Printing (except Screen and Books),,0,Internal Manuals,QUEENS,40.579379,-73.836941,32,938,4303944,4161880078,Breezy Point-Belle Harbor-Rockaway Park-Broad Channel
L&S Printing LLC,188 Beach 116th Street,,Queens,NY,11694,14 QUEENS,Commercial Printing (except Screen and Books),,0,Strategic Planning,QUEENS,40.579379,-73.836941,32,938,4303944,4161880078,Breezy Point-Belle Harbor-Rockaway Park-Broad Channel
L&S Printing LLC,188 Beach 116th Street,,Queens,NY,11694,14 QUEENS,Commercial Printing (except Screen and Books),,0,Succession Planning,QUEENS,40.579379,-73.836941,32,938,4303944,4161880078,Breezy Point-Belle Harbor-Rockaway Park-Broad Channel
La Mies Bakery,2211 Brookhaven Avenue,,Queens,NY,11691-2684,14 QUEENS,Other Grocery and Related Products Merchant Wholesalers,2,,Coaching,,,,,,,,
Limited Equity Properties,204 West 118th Street,,New York New York 10026,NY,10026,10 MANHATTAN,Residential Property Managers,1,,Initial Consultation,MANHATTAN,40.804649,-73.951883,9,218,1058395,1019230037,Central Harlem South
Limited Equity Properties,204 West 118th Street,,New York New York 10026,NY,10026,10 MANHATTAN,Residential Property Managers,1,,Organizational Planning,MANHATTAN,40.804649,-73.951883,9,218,1058395,1019230037,Central Harlem South
Love & Learn Childcare,774 Port Richmond Avenue,,Staten Island,NY,10302,1 STATEN ISLAND,Child Day Care Services,14,,Business Plan Development,STATEN IS,40.625223,-74.144626,49,247,5150918,5011400004,Port Richmond
Love & Learn Childcare,774 Port Richmond Avenue,,Staten Island,NY,10302,1 STATEN ISLAND,Child Day Care Services,14,,Coaching,STATEN IS,40.625223,-74.144626,49,247,5150918,5011400004,Port Richmond
Love & Learn Childcare,774 Port Richmond Avenue,,Staten Island,NY,10302,1 STATEN ISLAND,Child Day Care Services,14,,Financial Planning,STATEN IS,40.625223,-74.144626,49,247,5150918,5011400004,Port Richmond
Love & Learn Childcare,774 Port Richmond Avenue,,Staten Island,NY,10302,1 STATEN ISLAND,Child Day Care Services,14,,Internal Manuals,STATEN IS,40.625223,-74.144626,49,247,5150918,5011400004,Port Richmond
Love & Learn Childcare,774 Port Richmond Avenue,,Staten Island,NY,10302,1 STATEN ISLAND,Child Day Care Services,14,,Market Research,STATEN IS,40.625223,-74.144626,49,247,5150918,5011400004,Port Richmond
Love & Learn Childcare,774 Port Richmond Avenue,,Staten Island,NY,10302,1 STATEN ISLAND,Child Day Care Services,14,,Organizational Planning,STATEN IS,40.625223,-74.144626,49,247,5150918,5011400004,Port Richmond
Love & Learn Childcare,774 Port Richmond Avenue,,Staten Island,NY,10302,1 STATEN ISLAND,Child Day Care Services,14,,Strategic Planning,STATEN IS,40.625223,-74.144626,49,247,5150918,5011400004,Port Richmond
Love & Learn Childcare,774 Port Richmond Avenue,,Staten Island,NY,10302,1 STATEN ISLAND,Child Day Care Services,14,,,STATEN IS,40.625223,-74.144626,49,247,5150918,5011400004,Port Richmond
Luv Custom Prints,5012 3rd Avenue,,Brooklyn,NY,11220,,Commercial Screen Printing,5,,Strategic Planning,BROOKLYN,40.647551,-74.014732,38,20,3013163,3007890042,Sunset Park West
Luv Custom Prints,5012 3rd Avenue,,Brooklyn,NY,11220,,Commercial Screen Printing,5,,Support and Troubleshooting,BROOKLYN,40.647551,-74.014732,38,20,3013163,3007890042,Sunset Park West
Luv Custom Prints,5012 3rd Avenue,,Brooklyn,NY,11220,,Commercial Screen Printing,5,,,BROOKLYN,40.647551,-74.014732,38,20,3013163,3007890042,Sunset Park West
Maharlika Cleaning Cooperative,406 W 40th Street,,New York,NY,10018,4 MANHATTAN,Janitorial Services,7,0,Bookkeeping,MANHATTAN,40.757285,-73.993922,3,115,1013004,1007370042,Clinton
Maharlika Cleaning Cooperative,406 W 40th Street,,New York,NY,10018,4 MANHATTAN,Janitorial Services,7,0,Coaching,MANHATTAN,40.757285,-73.993922,3,115,1013004,1007370042,Clinton
Maharlika Cleaning Cooperative,406 W 40th Street,,New York,NY,10018,4 MANHATTAN,Janitorial Services,7,0,Financial Planning,MANHATTAN,40.757285,-73.993922,3,115,1013004,1007370042,Clinton
Maharlika Cleaning Cooperative,406 W 40th Street,,New York,NY,10018,4 MANHATTAN,Janitorial Services,7,0,Governance Consultation,MANHATTAN,40.757285,-73.993922,3,115,1013004,1007370042,Clinton
Maharlika Cleaning Cooperative,406 W 40th Street,,New York,NY,10018,4 MANHATTAN,Janitorial Services,7,0,Internal Manuals,MANHATTAN,40.757285,-73.993922,3,115,1013004,1007370042,Clinton
Maharlika Cleaning Cooperative,406 W 40th Street,,New York,NY,10018,4 MANHATTAN,Janitorial Services,7,0,Market Research,MANHATTAN,40.757285,-73.993922,3,115,1013004,1007370042,Clinton
Maharlika Cleaning Cooperative,406 W 40th Street,,New York,NY,10018,4 MANHATTAN,Janitorial Services,7,0,Organizational Planning,MANHATTAN,40.757285,-73.993922,3,115,1013004,1007370042,Clinton
Maharlika Cleaning Cooperative,406 W 40th Street,,New York,NY,10018,4 MANHATTAN,Janitorial Services,7,0,Strategic Planning,MANHATTAN,40.757285,-73.993922,3,115,1013004,1007370042,Clinton
Maharlika Cleaning Cooperative,406 W 40th Street,,New York,NY,10018,4 MANHATTAN,Janitorial Services,7,0,Support and Troubleshooting,MANHATTAN,40.757285,-73.993922,3,115,1013004,1007370042,Clinton
Maharlika Cleaning Cooperative,406 W 40th Street,,New York,NY,10018,4 MANHATTAN,Janitorial Services,7,0,Web Development and Support,MANHATTAN,40.757285,-73.993922,3,115,1013004,1007370042,Clinton
Maharlika Cleaning Cooperative,406 W 40th Street,,New York,NY,10018,4 MANHATTAN,Janitorial Services,7,0,,MANHATTAN,40.757285,-73.993922,3,115,1013004,1007370042,Clinton
New Deal Home Improvement Company,164 West 79th Street,#1D,New York,NY,10024,,,,,,MANHATTAN,40.782669,-73.977215,6,165,1030265,1011500056,Upper West Side
New York Technology Guild,8 Manhattan Avenue,,New York,NY,10025,7 MANHATTAN,,,,Governance Consultation,MANHATTAN,40.795061,-73.96409,7,189,1055291,1018360019,Upper West Side
White Pine Community Farm,295 Duell Hollow Rd,,Wingdale,NY,12594,N/A,"Herb farming, open field",3,,Strategic Planning,,,,,,,,
New York Technology Guild,8 Manhattan Avenue,,New York,NY,10025,7 MANHATTAN,,,,Strategic Planning,MANHATTAN,40.795061,-73.96409,7,189,1055291,1018360019,Upper West Side
Ometeotl,116 East Mosholu Parkway South,,Bronx,NY,10458,7 BRONX,Other Miscellaneous Nondurable Goods Merchant Wholesalers,3,,Business Plan Development,BRONX,40.876177,-73.883521,11,413,2017399,2033130040,Bedford Park-Fordham North
Ometeotl,116 East Mosholu Parkway South,,Bronx,NY,10458,7 BRONX,Other Miscellaneous Nondurable Goods Merchant Wholesalers,3,,Coaching,BRONX,40.876177,-73.883521,11,413,2017399,2033130040,Bedford Park-Fordham North
Ometeotl,116 East Mosholu Parkway South,,Bronx,NY,10458,7 BRONX,Other Miscellaneous Nondurable Goods Merchant Wholesalers,3,,Financial Planning,BRONX,40.876177,-73.883521,11,413,2017399,2033130040,Bedford Park-Fordham North
Ometeotl,116 East Mosholu Parkway South,,Bronx,NY,10458,7 BRONX,Other Miscellaneous Nondurable Goods Merchant Wholesalers,3,,Initial Consultation,BRONX,40.876177,-73.883521,11,413,2017399,2033130040,Bedford Park-Fordham North
Ometeotl,116 East Mosholu Parkway South,,Bronx,NY,10458,7 BRONX,Other Miscellaneous Nondurable Goods Merchant Wholesalers,3,,Internal Manuals,BRONX,40.876177,-73.883521,11,413,2017399,2033130040,Bedford Park-Fordham North
Ometeotl,116 East Mosholu Parkway South,,Bronx,NY,10458,7 BRONX,Other Miscellaneous Nondurable Goods Merchant Wholesalers,3,,Market Research,BRONX,40.876177,-73.883521,11,413,2017399,2033130040,Bedford Park-Fordham North
Ometeotl,116 East Mosholu Parkway South,,Bronx,NY,10458,7 BRONX,Other Miscellaneous Nondurable Goods Merchant Wholesalers,3,,Organizational Planning,BRONX,40.876177,-73.883521,11,413,2017399,2033130040,Bedford Park-Fordham North
Ometeotl,116 East Mosholu Parkway South,,Bronx,NY,10458,7 BRONX,Other Miscellaneous Nondurable Goods Merchant Wholesalers,3,,Strategic Planning,BRONX,40.876177,-73.883521,11,413,2017399,2033130040,Bedford Park-Fordham North
OnPoint Security,4-25 Astoria Boulevard,,Astoria,NY,11102,1 QUEENS,Security Guards and Patrol Services,7,11,Bookkeeping,QUEENS,40.772889,-73.93328,22,87,4430788,4004900101,Old Astoria
OnPoint Security,4-25 Astoria Boulevard,,Astoria,NY,11102,1 QUEENS,Security Guards and Patrol Services,7,11,Business Plan Development,QUEENS,40.772889,-73.93328,22,87,4430788,4004900101,Old Astoria
OnPoint Security,4-25 Astoria Boulevard,,Astoria,NY,11102,1 QUEENS,Security Guards and Patrol Services,7,11,Coaching,QUEENS,40.772889,-73.93328,22,87,4430788,4004900101,Old Astoria
OnPoint Security,4-25 Astoria Boulevard,,Astoria,NY,11102,1 QUEENS,Security Guards and Patrol Services,7,11,Governance Consultation,QUEENS,40.772889,-73.93328,22,87,4430788,4004900101,Old Astoria
OnPoint Security,4-25 Astoria Boulevard,,Astoria,NY,11102,1 QUEENS,Security Guards and Patrol Services,7,11,Initial Consultation,QUEENS,40.772889,-73.93328,22,87,4430788,4004900101,Old Astoria
OnPoint Security,4-25 Astoria Boulevard,,Astoria,NY,11102,1 QUEENS,Security Guards and Patrol Services,7,11,Market Research,QUEENS,40.772889,-73.93328,22,87,4430788,4004900101,Old Astoria
OnPoint Security,4-25 Astoria Boulevard,,Astoria,NY,11102,1 QUEENS,Security Guards and Patrol Services,7,11,Organizational Planning,QUEENS,40.772889,-73.93328,22,87,4430788,4004900101,Old Astoria
OnPoint Security,4-25 Astoria Boulevard,,Astoria,NY,11102,1 QUEENS,Security Guards and Patrol Services,7,11,Strategic Planning,QUEENS,40.772889,-73.93328,22,87,4430788,4004900101,Old Astoria
OnPoint Security,4-25 Astoria Boulevard,,Astoria,NY,11102,1 QUEENS,Security Guards and Patrol Services,7,11,Support and Troubleshooting,QUEENS,40.772889,-73.93328,22,87,4430788,4004900101,Old Astoria
OSHA Solutions,PO Box 8206,,Jackson Heights,NY,11372,3 QUEENS,Educational Support Services,5,0,Business Plan Development,,,,,,,,
OSHA Solutions,PO Box 8206,,Jackson Heights,NY,11372,3 QUEENS,Educational Support Services,5,0,Coaching,,,,,,,,
OSHA Solutions,PO Box 8206,,Jackson Heights,NY,11372,3 QUEENS,Educational Support Services,5,0,Financial Planning,,,,,,,,
OSHA Solutions,PO Box 8206,,Jackson Heights,NY,11372,3 QUEENS,Educational Support Services,5,0,Initial Consultation,,,,,,,,
OSHA Solutions,PO Box 8206,,Jackson Heights,NY,11372,3 QUEENS,Educational Support Services,5,0,Market Research,,,,,,,,
OSHA Solutions,PO Box 8206,,Jackson Heights,NY,11372,3 QUEENS,Educational Support Services,5,0,Support and Troubleshooting,,,,,,,,
OSHA Solutions,PO Box 8206,,Jackson Heights,NY,11372,3 QUEENS,Educational Support Services,5,0,Translation Services,,,,,,,,
OSHA Solutions,PO Box 8206,,Jackson Heights,NY,11372,3 QUEENS,Educational Support Services,5,0,Web Development and Support,,,,,,,,
Pa'lante Forward Green Cleaning LLC,92-10 Roosevelt Avenue,,Queens,NY,11372,4 QUEENS,Janitorial Services,10,0,Bookkeeping,QUEENS,40.748623,-73.874487,21,469,4038783,4015500020,Elmhurst
Pa'lante Forward Green Cleaning LLC,92-10 Roosevelt Avenue,,Queens,NY,11372,4 QUEENS,Janitorial Services,10,0,Financial Planning,QUEENS,40.748623,-73.874487,21,469,4038783,4015500020,Elmhurst
Pa'lante Forward Green Cleaning LLC,92-10 Roosevelt Avenue,,Queens,NY,11372,4 QUEENS,Janitorial Services,10,0,Governance Consultation,QUEENS,40.748623,-73.874487,21,469,4038783,4015500020,Elmhurst
Pa'lante Forward Green Cleaning LLC,92-10 Roosevelt Avenue,,Queens,NY,11372,4 QUEENS,Janitorial Services,10,0,Internal Manuals,QUEENS,40.748623,-73.874487,21,469,4038783,4015500020,Elmhurst
Pa'lante Forward Green Cleaning LLC,92-10 Roosevelt Avenue,,Queens,NY,11372,4 QUEENS,Janitorial Services,10,0,Market Research,QUEENS,40.748623,-73.874487,21,469,4038783,4015500020,Elmhurst
Pa'lante Forward Green Cleaning LLC,92-10 Roosevelt Avenue,,Queens,NY,11372,4 QUEENS,Janitorial Services,10,0,Strategic Planning,QUEENS,40.748623,-73.874487,21,469,4038783,4015500020,Elmhurst
Pa'lante Forward Green Cleaning LLC,92-10 Roosevelt Avenue,,Queens,NY,11372,4 QUEENS,Janitorial Services,10,0,Support and Troubleshooting,QUEENS,40.748623,-73.874487,21,469,4038783,4015500020,Elmhurst
Pa'lante Forward Green Cleaning LLC,92-10 Roosevelt Avenue,,Queens,NY,11372,4 QUEENS,Janitorial Services,10,0,Web Development and Support,QUEENS,40.748623,-73.874487,21,469,4038783,4015500020,Elmhurst
"Palante Technology Cooperative, Inc.",,,,,,,,,,Market Research,,,,,,,,
POLIDO Skateboards,1231 Lafayette Avenue,,Bronx,NY,10474,2 BRONX,Sporting and Athletic Goods Manufacturing,2,,Business Plan Development,BRONX,40.816486,-73.890277,17,93,2005939,2027390015,Hunts Point
POLIDO Skateboards,1231 Lafayette Avenue,,Bronx,NY,10474,2 BRONX,Sporting and Athletic Goods Manufacturing,2,,Financial Planning,BRONX,40.816486,-73.890277,17,93,2005939,2027390015,Hunts Point
POLIDO Skateboards,1231 Lafayette Avenue,,Bronx,NY,10474,2 BRONX,Sporting and Athletic Goods Manufacturing,2,,Initial Consultation,BRONX,40.816486,-73.890277,17,93,2005939,2027390015,Hunts Point
POLIDO Skateboards,1231 Lafayette Avenue,,Bronx,NY,10474,2 BRONX,Sporting and Athletic Goods Manufacturing,2,,Strategic Planning,BRONX,40.816486,-73.890277,17,93,2005939,2027390015,Hunts Point
POLIDO Skateboards,1231 Lafayette Avenue,,Bronx,NY,10474,2 BRONX,Sporting and Athletic Goods Manufacturing,2,,Web Development and Support,BRONX,40.816486,-73.890277,17,93,2005939,2027390015,Hunts Point
POLIDO Skateboards,1231 Lafayette Avenue,,Bronx,NY,10474,2 BRONX,Sporting and Athletic Goods Manufacturing,2,,,BRONX,40.816486,-73.890277,17,93,2005939,2027390015,Hunts Point
"Position Development, LLC",20 Jay Street,,Brooklyn,NY,11201,2 BROOKLYN,Software Publishers,,1,Coaching,BROOKLYN,40.704313,-73.986587,33,21,3000010,3000190001,DUMBO-Vinegar Hill-Downtown Brooklyn-Boerum Hill
"Position Development, LLC",20 Jay Street,,Brooklyn,NY,11201,2 BROOKLYN,Software Publishers,,1,Financial Planning,BROOKLYN,40.704313,-73.986587,33,21,3000010,3000190001,DUMBO-Vinegar Hill-Downtown Brooklyn-Boerum Hill
Radix Media,522 Bergen Street,,Brooklyn,NY,11217,8 BROOKLYN,Commercial Printing (except Screen and Books),3,,Coaching,BROOKLYN,40.680412,-73.973006,35,161,3028045,3011430032,Prospect Heights
Radix Media,522 Bergen Street,,Brooklyn,NY,11217,8 BROOKLYN,Commercial Printing (except Screen and Books),3,,Initial Consultation,BROOKLYN,40.680412,-73.973006,35,161,3028045,3011430032,Prospect Heights
Radix Media,522 Bergen Street,,Brooklyn,NY,11217,8 BROOKLYN,Commercial Printing (except Screen and Books),3,,Market Research,BROOKLYN,40.680412,-73.973006,35,161,3028045,3011430032,Prospect Heights
Radix Media,522 Bergen Street,,Brooklyn,NY,11217,8 BROOKLYN,Commercial Printing (except Screen and Books),3,,Organizational Planning,BROOKLYN,40.680412,-73.973006,35,161,3028045,3011430032,Prospect Heights
Radix Media,522 Bergen Street,,Brooklyn,NY,11217,8 BROOKLYN,Commercial Printing (except Screen and Books),3,,Strategic Planning,BROOKLYN,40.680412,-73.973006,35,161,3028045,3011430032,Prospect Heights
Roca Mia Construction,2304 Cornaga Avenue,,Queens,NY,11691,N/A,Commercial and Institutional Building Construction,5,,Coaching,QUEENS,40.602245,-73.758098,31,100802,4300193,4157070003,Far Rockaway-Bayswater
Roca Mia Construction,2304 Cornaga Avenue,,Queens,NY,11691,N/A,Commercial and Institutional Building Construction,5,,Financial Planning,QUEENS,40.602245,-73.758098,31,100802,4300193,4157070003,Far Rockaway-Bayswater
Roca Mia Construction,2304 Cornaga Avenue,,Queens,NY,11691,N/A,Commercial and Institutional Building Construction,5,,Governance Consultation,QUEENS,40.602245,-73.758098,31,100802,4300193,4157070003,Far Rockaway-Bayswater
Roca Mia Construction,2304 Cornaga Avenue,,Queens,NY,11691,N/A,Commercial and Institutional Building Construction,5,,Internal Manuals,QUEENS,40.602245,-73.758098,31,100802,4300193,4157070003,Far Rockaway-Bayswater
Roca Mia Construction,2304 Cornaga Avenue,,Queens,NY,11691,N/A,Commercial and Institutional Building Construction,5,,Strategic Planning,QUEENS,40.602245,-73.758098,31,100802,4300193,4157070003,Far Rockaway-Bayswater
SAMAMKAYA,119 West 23rd Street,Suite # 406,New York,NY,10011,4 MANHATTAN,All Other Miscellaneous Schools and Instruction,,,Market Research,MANHATTAN,40.743248,-73.993591,3,91,1014952,1007990028,Hudson Yards-Chelsea-Flatiron-Union Square
SAMAMKAYA,119 West 23rd Street,Suite # 406,New York,NY,10011,4 MANHATTAN,All Other Miscellaneous Schools and Instruction,,,Organizational Planning,MANHATTAN,40.743248,-73.993591,3,91,1014952,1007990028,Hudson Yards-Chelsea-Flatiron-Union Square
Si Se Puede Women's Cleaning Cooperative,4202 3rd Avenue,,Brooklyn,NY,11232,7 BROOKLYN,Janitorial Services,82,14,,BROOKLYN,40.652078,-74.010033,38,2,3010796,3007220035,Sunset Park West
Skedaddle Pest Management,7014 13th Avenue,,Brooklyn,NY,11228,10 BROOKLYN,Exterminating and Pest Control Services,4,0,Coaching,BROOKLYN,40.623011,-74.004633,43,196,3157031,3061660041,Dyker Heights
Skedaddle Pest Management,7014 13th Avenue,,Brooklyn,NY,11228,10 BROOKLYN,Exterminating and Pest Control Services,4,0,Initial Consultation,BROOKLYN,40.623011,-74.004633,43,196,3157031,3061660041,Dyker Heights
Skedaddle Pest Management,7014 13th Avenue,,Brooklyn,NY,11228,10 BROOKLYN,Exterminating and Pest Control Services,4,0,Market Research,BROOKLYN,40.623011,-74.004633,43,196,3157031,3061660041,Dyker Heights
Skedaddle Pest Management,7014 13th Avenue,,Brooklyn,NY,11228,10 BROOKLYN,Exterminating and Pest Control Services,4,0,Organizational Planning,BROOKLYN,40.623011,-74.004633,43,196,3157031,3061660041,Dyker Heights
Skedaddle Pest Management,7014 13th Avenue,,Brooklyn,NY,11228,10 BROOKLYN,Exterminating and Pest Control Services,4,0,Strategic Planning,BROOKLYN,40.623011,-74.004633,43,196,3157031,3061660041,Dyker Heights
Solidarity Inc.,97-07 Horace Harding Expressway,,Queens,NY,11368,,Educational Services,1,,Bookkeeping,QUEENS,40.734908,-73.8625,21,455,4464076,4019180110,Corona
Solidarity Inc.,97-07 Horace Harding Expressway,,Queens,NY,11368,,Educational Services,1,,Financial Planning,QUEENS,40.734908,-73.8625,21,455,4464076,4019180110,Corona
Solidarity Inc.,97-07 Horace Harding Expressway,,Queens,NY,11368,,Educational Services,1,,Governance Consultation,QUEENS,40.734908,-73.8625,21,455,4464076,4019180110,Corona
Solidarity Inc.,97-07 Horace Harding Expressway,,Queens,NY,11368,,Educational Services,1,,Initial Consultation,QUEENS,40.734908,-73.8625,21,455,4464076,4019180110,Corona
Solidarity Inc.,97-07 Horace Harding Expressway,,Queens,NY,11368,,Educational Services,1,,Organizational Planning,QUEENS,40.734908,-73.8625,21,455,4464076,4019180110,Corona
Solidarity Research Coop,,,,,,,,,,Initial Consultation,,,,,,,,
Sunset Scholars,443 39th Street,,Brooklyn,NY,11232,7 BROOKLYN,Exam Preparation and Tutoring,12,,Bookkeeping,BROOKLYN,40.652001,-74.00511,38,84,3396141,3007050059,Sunset Park West
Sunset Scholars,443 39th Street,,Brooklyn,NY,11232,7 BROOKLYN,Exam Preparation and Tutoring,12,,Business Plan Development,BROOKLYN,40.652001,-74.00511,38,84,3396141,3007050059,Sunset Park West
Sunset Scholars,443 39th Street,,Brooklyn,NY,11232,7 BROOKLYN,Exam Preparation and Tutoring,12,,Coaching,BROOKLYN,40.652001,-74.00511,38,84,3396141,3007050059,Sunset Park West
Sunset Scholars,443 39th Street,,Brooklyn,NY,11232,7 BROOKLYN,Exam Preparation and Tutoring,12,,Governance Consultation,BROOKLYN,40.652001,-74.00511,38,84,3396141,3007050059,Sunset Park West
Sunset Scholars,443 39th Street,,Brooklyn,NY,11232,7 BROOKLYN,Exam Preparation and Tutoring,12,,Market Research,BROOKLYN,40.652001,-74.00511,38,84,3396141,3007050059,Sunset Park West
Sunset Scholars,443 39th Street,,Brooklyn,NY,11232,7 BROOKLYN,Exam Preparation and Tutoring,12,,Organizational Planning,BROOKLYN,40.652001,-74.00511,38,84,3396141,3007050059,Sunset Park West
Sunset Scholars,443 39th Street,,Brooklyn,NY,11232,7 BROOKLYN,Exam Preparation and Tutoring,12,,Strategic Planning,BROOKLYN,40.652001,-74.00511,38,84,3396141,3007050059,Sunset Park West
Sunset Scholars,443 39th Street,,Brooklyn,NY,11232,7 BROOKLYN,Exam Preparation and Tutoring,12,,Support and Troubleshooting,BROOKLYN,40.652001,-74.00511,38,84,3396141,3007050059,Sunset Park West
Syllable Cooperative,1980 Lafayette Avenue,,Bronx,NY,10473,9 BRONX,Commercial Screen Printing,12,0,Market Research,BRONX,40.82229,-73.856167,18,16,2022205,2036040039,Soundview-Castle Hill-Clason Point-Harding Park
Syllable Cooperative,1980 Lafayette Avenue,,Bronx,NY,10473,9 BRONX,Commercial Screen Printing,12,0,Strategic Planning,BRONX,40.82229,-73.856167,18,16,2022205,2036040039,Soundview-Castle Hill-Clason Point-Harding Park
Syllable Cooperative,1980 Lafayette Avenue,,Bronx,NY,10473,9 BRONX,Commercial Screen Printing,12,0,Support and Troubleshooting,BRONX,40.82229,-73.856167,18,16,2022205,2036040039,Soundview-Castle Hill-Clason Point-Harding Park
Syllable Cooperative,1980 Lafayette Avenue,,Bronx,NY,10473,9 BRONX,Commercial Screen Printing,12,0,Web Development and Support,BRONX,40.82229,-73.856167,18,16,2022205,2036040039,Soundview-Castle Hill-Clason Point-Harding Park
Syllable Cooperative,1980 Lafayette Avenue,,Bronx,NY,10473,9 BRONX,Commercial Screen Printing,12,0,,BRONX,40.82229,-73.856167,18,16,2022205,2036040039,Soundview-Castle Hill-Clason Point-Harding Park
The House of Spoof Collective,838 Manida Street,,Bronx,NY,10474,2 BRONX,Graphic Design Services,4,,Business Plan Development,BRONX,40.817496,-73.88961,17,93,2005967,2027400057,Hunts Point
The House of Spoof Collective,838 Manida Street,,Bronx,NY,10474,2 BRONX,Graphic Design Services,4,,Financial Planning,BRONX,40.817496,-73.88961,17,93,2005967,2027400057,Hunts Point
The House of Spoof Collective,838 Manida Street,,Bronx,NY,10474,2 BRONX,Graphic Design Services,4,,Governance Consultation,BRONX,40.817496,-73.88961,17,93,2005967,2027400057,Hunts Point
The House of Spoof Collective,838 Manida Street,,Bronx,NY,10474,2 BRONX,Graphic Design Services,4,,Internal Manuals,BRONX,40.817496,-73.88961,17,93,2005967,2027400057,Hunts Point
The House of Spoof Collective,838 Manida Street,,Bronx,NY,10474,2 BRONX,Graphic Design Services,4,,Market Research,BRONX,40.817496,-73.88961,17,93,2005967,2027400057,Hunts Point
The House of Spoof Collective,838 Manida Street,,Bronx,NY,10474,2 BRONX,Graphic Design Services,4,,Strategic Planning,BRONX,40.817496,-73.88961,17,93,2005967,2027400057,Hunts Point
The House of Spoof Collective,838 Manida Street,,Bronx,NY,10474,2 BRONX,Graphic Design Services,4,,,BRONX,40.817496,-73.88961,17,93,2005967,2027400057,Hunts Point
Third Root Community Health Center,380 Marlborough Road,,Brooklyn,NY,11226,14 BROOKLYN,Other Personal Care Services,5,10,Coaching,BROOKLYN,40.640698,-73.964342,40,520,3118680,3051570010,Flatbush
Third Root Community Health Center,380 Marlborough Road,,Brooklyn,NY,11226,14 BROOKLYN,Other Personal Care Services,5,10,Financial Planning,BROOKLYN,40.640698,-73.964342,40,520,3118680,3051570010,Flatbush
Third Root Community Health Center,380 Marlborough Road,,Brooklyn,NY,11226,14 BROOKLYN,Other Personal Care Services,5,10,Market Research,BROOKLYN,40.640698,-73.964342,40,520,3118680,3051570010,Flatbush
Tru Blend Catering Inc.,362 East 96th Street,,Brooklyn,NY,11212,17 BROOKLYN,Caterers,,,Business Plan Development,BROOKLYN,40.658409,-73.918484,41,886,3101883,3046700053,Rugby-Remsen Village
Tru Blend Catering Inc.,362 East 96th Street,,Brooklyn,NY,11212,17 BROOKLYN,Caterers,,,Coaching,BROOKLYN,40.658409,-73.918484,41,886,3101883,3046700053,Rugby-Remsen Village
Tru Blend Catering Inc.,362 East 96th Street,,Brooklyn,NY,11212,17 BROOKLYN,Caterers,,,Governance Consultation,BROOKLYN,40.658409,-73.918484,41,886,3101883,3046700053,Rugby-Remsen Village
White Pine Community Farm,295 Duell Hollow Rd,,Wingdale,NY,12594,N/A,"Herb farming, open field",3,,Support and Troubleshooting,,,,,,,,
Trusty Amigos Pet Care Cooperative,443 39th Street,,Brooklyn,NY,11232,7 BROOKLYN,Pet Care (except Veterinary) Services,7,,Bookkeeping,BROOKLYN,40.652001,-74.00511,38,84,3396141,3007050059,Sunset Park West
Trusty Amigos Pet Care Cooperative,443 39th Street,,Brooklyn,NY,11232,7 BROOKLYN,Pet Care (except Veterinary) Services,7,,Coaching,BROOKLYN,40.652001,-74.00511,38,84,3396141,3007050059,Sunset Park West
Trusty Amigos Pet Care Cooperative,443 39th Street,,Brooklyn,NY,11232,7 BROOKLYN,Pet Care (except Veterinary) Services,7,,Financial Planning,BROOKLYN,40.652001,-74.00511,38,84,3396141,3007050059,Sunset Park West
Trusty Amigos Pet Care Cooperative,443 39th Street,,Brooklyn,NY,11232,7 BROOKLYN,Pet Care (except Veterinary) Services,7,,Governance Consultation,BROOKLYN,40.652001,-74.00511,38,84,3396141,3007050059,Sunset Park West
Trusty Amigos Pet Care Cooperative,443 39th Street,,Brooklyn,NY,11232,7 BROOKLYN,Pet Care (except Veterinary) Services,7,,Internal Manuals,BROOKLYN,40.652001,-74.00511,38,84,3396141,3007050059,Sunset Park West
Trusty Amigos Pet Care Cooperative,443 39th Street,,Brooklyn,NY,11232,7 BROOKLYN,Pet Care (except Veterinary) Services,7,,Market Research,BROOKLYN,40.652001,-74.00511,38,84,3396141,3007050059,Sunset Park West
Trusty Amigos Pet Care Cooperative,443 39th Street,,Brooklyn,NY,11232,7 BROOKLYN,Pet Care (except Veterinary) Services,7,,Organizational Planning,BROOKLYN,40.652001,-74.00511,38,84,3396141,3007050059,Sunset Park West
Trusty Amigos Pet Care Cooperative,443 39th Street,,Brooklyn,NY,11232,7 BROOKLYN,Pet Care (except Veterinary) Services,7,,Strategic Planning,BROOKLYN,40.652001,-74.00511,38,84,3396141,3007050059,Sunset Park West
United Handymen,443 39th Street,,Brooklyn,NY,11232,7 BROOKLYN,Commercial and Institutional Building Construction,8,,Bookkeeping,BROOKLYN,40.652001,-74.00511,38,84,3396141,3007050059,Sunset Park West
United Handymen,443 39th Street,,Brooklyn,NY,11232,7 BROOKLYN,Commercial and Institutional Building Construction,8,,Coaching,BROOKLYN,40.652001,-74.00511,38,84,3396141,3007050059,Sunset Park West
United Handymen,443 39th Street,,Brooklyn,NY,11232,7 BROOKLYN,Commercial and Institutional Building Construction,8,,Governance Consultation,BROOKLYN,40.652001,-74.00511,38,84,3396141,3007050059,Sunset Park West
United Handymen,443 39th Street,,Brooklyn,NY,11232,7 BROOKLYN,Commercial and Institutional Building Construction,8,,Internal Manuals,BROOKLYN,40.652001,-74.00511,38,84,3396141,3007050059,Sunset Park West
United Handymen,443 39th Street,,Brooklyn,NY,11232,7 BROOKLYN,Commercial and Institutional Building Construction,8,,Market Research,BROOKLYN,40.652001,-74.00511,38,84,3396141,3007050059,Sunset Park West
United Handymen,443 39th Street,,Brooklyn,NY,11232,7 BROOKLYN,Commercial and Institutional Building Construction,8,,Organizational Planning,BROOKLYN,40.652001,-74.00511,38,84,3396141,3007050059,Sunset Park West
United Handymen,443 39th Street,,Brooklyn,NY,11232,7 BROOKLYN,Commercial and Institutional Building Construction,8,,Strategic Planning,BROOKLYN,40.652001,-74.00511,38,84,3396141,3007050059,Sunset Park West
United Handymen,443 39th Street,,Brooklyn,NY,11232,7 BROOKLYN,Commercial and Institutional Building Construction,8,,Support and Troubleshooting,BROOKLYN,40.652001,-74.00511,38,84,3396141,3007050059,Sunset Park West
United Handymen,443 39th Street,,Brooklyn,NY,11232,7 BROOKLYN,Commercial and Institutional Building Construction,8,,Web Development and Support,BROOKLYN,40.652001,-74.00511,38,84,3396141,3007050059,Sunset Park West
United Handymen,443 39th Street,,Brooklyn,NY,11232,7 BROOKLYN,Commercial and Institutional Building Construction,8,,,BROOKLYN,40.652001,-74.00511,38,84,3396141,3007050059,Sunset Park West
Uptown Village,2460 7th Avenue,,New York,NY,10030,10 MANHATTAN,Family Planning Centers,4,,Business Plan Development,MANHATTAN,40.820472,-73.939938,9,232,1060433,1020290029,Central Harlem North-Polo Grounds
Uptown Village,2460 7th Avenue,,New York,NY,10030,10 MANHATTAN,Family Planning Centers,4,,Coaching,MANHATTAN,40.820472,-73.939938,9,232,1060433,1020290029,Central Harlem North-Polo Grounds
Uptown Village,2460 7th Avenue,,New York,NY,10030,10 MANHATTAN,Family Planning Centers,4,,Financial Planning,MANHATTAN,40.820472,-73.939938,9,232,1060433,1020290029,Central Harlem North-Polo Grounds
Uptown Village,2460 7th Avenue,,New York,NY,10030,10 MANHATTAN,Family Planning Centers,4,,Initial Consultation,MANHATTAN,40.820472,-73.939938,9,232,1060433,1020290029,Central Harlem North-Polo Grounds
Uptown Village,2460 7th Avenue,,New York,NY,10030,10 MANHATTAN,Family Planning Centers,4,,Internal Manuals,MANHATTAN,40.820472,-73.939938,9,232,1060433,1020290029,Central Harlem North-Polo Grounds
Uptown Village,2460 7th Avenue,,New York,NY,10030,10 MANHATTAN,Family Planning Centers,4,,Organizational Planning,MANHATTAN,40.820472,-73.939938,9,232,1060433,1020290029,Central Harlem North-Polo Grounds
Uptown Village,2460 7th Avenue,,New York,NY,10030,10 MANHATTAN,Family Planning Centers,4,,Strategic Planning,MANHATTAN,40.820472,-73.939938,9,232,1060433,1020290029,Central Harlem North-Polo Grounds
Uptown Village,2460 7th Avenue,,New York,NY,10030,10 MANHATTAN,Family Planning Centers,4,,Web Development and Support,MANHATTAN,40.820472,-73.939938,9,232,1060433,1020290029,Central Harlem North-Polo Grounds
Uptown Village,2460 7th Avenue,,New York,NY,10030,10 MANHATTAN,Family Planning Centers,4,,,MANHATTAN,40.820472,-73.939938,9,232,1060433,1020290029,Central Harlem North-Polo Grounds
White Pine Community Farm,295 Duell Hollow Rd,,Wingdale,NY,12594,N/A,"Herb farming, open field",3,,Financial Planning,,,,,,,,
White Pine Community Farm,295 Duell Hollow Rd,,Wingdale,NY,12594,N/A,"Herb farming, open field",3,,Initial Consultation,,,,,,,,
White Pine Community Farm,295 Duell Hollow Rd,,Wingdale,NY,12594,N/A,"Herb farming, open field",3,,Internal Manuals,,,,,,,,
Woke Foods,630 West 135th Street,,New York,NY,10031,9 MANHATTAN,Caterers,3,,Business Plan Development,MANHATTAN,40.820507,-73.956059,7,22302,1059943,1020010055,Manhattanville
Woke Foods,630 West 135th Street,,New York,NY,10031,9 MANHATTAN,Caterers,3,,Financial Planning,MANHATTAN,40.820507,-73.956059,7,22302,1059943,1020010055,Manhattanville
Woke Foods,630 West 135th Street,,New York,NY,10031,9 MANHATTAN,Caterers,3,,Initial Consultation,MANHATTAN,40.820507,-73.956059,7,22302,1059943,1020010055,Manhattanville
Woke Foods,630 West 135th Street,,New York,NY,10031,9 MANHATTAN,Caterers,3,,Market Research,MANHATTAN,40.820507,-73.956059,7,22302,1059943,1020010055,Manhattanville
Woke Foods,630 West 135th Street,,New York,NY,10031,9 MANHATTAN,Caterers,3,,Organizational Planning,MANHATTAN,40.820507,-73.956059,7,22302,1059943,1020010055,Manhattanville
Woke Foods,630 West 135th Street,,New York,NY,10031,9 MANHATTAN,Caterers,3,,,MANHATTAN,40.820507,-73.956059,7,22302,1059943,1020010055,Manhattanville
Workers Transport,195 Montague Street,,Brooklyn,NY,11201,2 BROOKLYN,All Other Support Activities for Transportation,4,0,Business Plan Development,BROOKLYN,40.694015,-73.991472,33,9,3002008,3002447501,Brooklyn Heights-Cobble Hill
Workers Transport,195 Montague Street,,Brooklyn,NY,11201,2 BROOKLYN,All Other Support Activities for Transportation,4,0,Financial Planning,BROOKLYN,40.694015,-73.991472,33,9,3002008,3002447501,Brooklyn Heights-Cobble Hill
Workers Transport,195 Montague Street,,Brooklyn,NY,11201,2 BROOKLYN,All Other Support Activities for Transportation,4,0,Governance Consultation,BROOKLYN,40.694015,-73.991472,33,9,3002008,3002447501,Brooklyn Heights-Cobble Hill
Workers Transport,195 Montague Street,,Brooklyn,NY,11201,2 BROOKLYN,All Other Support Activities for Transportation,4,0,Organizational Planning,BROOKLYN,40.694015,-73.991472,33,9,3002008,3002447501,Brooklyn Heights-Cobble Hill
Workers Transport,195 Montague Street,,Brooklyn,NY,11201,2 BROOKLYN,All Other Support Activities for Transportation,4,0,Strategic Planning,BROOKLYN,40.694015,-73.991472,33,9,3002008,3002447501,Brooklyn Heights-Cobble Hill
